{
  "type": "FeatureCollection",
  "features": [
    {
      "type": "Feature",
      "properties": {
        "norad_id": 41026,
        "name": "YAOGAN-28",
        "group": "resource",
        "lat": 13.092107199843188,
        "lon": 131.08852628897094,
        "alt_km": 492.90956232354165,
        "timestamp": "2025-12-21T05:44:51.233084+00:00",
        "meta_object_name": "YAOGAN-28",
        "meta_object_id": "2015-064A",
        "meta_epoch": "2025-12-20T21:48:47.517984",
        "meta_mean_motion": 15.24474968,
        "meta_eccentricity": 0.00126279,
        "meta_inclination": 97.2812,
        "meta_ra_of_asc_node": 132.4712,
        "meta_arg_of_pericenter": 100.0413,
        "meta_mean_anomaly": 260.225,
        "meta_ephemeris_type": 0,
        "meta_classification_type": "U",
        "meta_norad_cat_id": 41026,
        "meta_element_set_no": 999,
        "meta_rev_at_epoch": 56349,
        "meta_bstar": 0.00022582932,
        "meta_mean_motion_dot": 5.49e-05,
        "meta_mean_motion_ddot": 0,
        "tle_line1": "1 41026U 15064A   25354.90888331  .00005490  00000+0  22583-3 0  9998",
        "tle_line2": "2 41026  97.2812 132.4712 0012627 100.0413 260.2250 15.24474968563495"
      },
      "geometry": {
        "type": "Point",
        "coordinates": [
          131.08852628897094,
          13.092107199843188
        ]
      }
    },
    {
      "type": "Feature",
      "properties": {
        "norad_id": 41038,
        "name": "YAOGAN-29",
        "group": "resource",
        "lat": -76.1489734646629,
        "lon": 53.32054294802572,
        "alt_km": 627.6732488376083,
        "timestamp": "2025-12-21T05:44:51.233094+00:00",
        "meta_object_name": "YAOGAN-29",
        "meta_object_id": "2015-069A",
        "meta_epoch": "2025-12-20T23:37:26.963040",
        "meta_mean_motion": 14.82891658,
        "meta_eccentricity": 5.548e-05,
        "meta_inclination": 98.021,
        "meta_ra_of_asc_node": 18.1825,
        "meta_arg_of_pericenter": 171.8197,
        "meta_mean_anomaly": 188.3025,
        "meta_ephemeris_type": 0,
        "meta_classification_type": "U",
        "meta_norad_cat_id": 41038,
        "meta_element_set_no": 999,
        "meta_rev_at_epoch": 54421,
        "meta_bstar": 4.8231449e-05,
        "meta_mean_motion_dot": 3.37e-06,
        "meta_mean_motion_ddot": 0,
        "tle_line1": "1 41038U 15069A   25354.98433985  .00000337  00000+0  48231-4 0  9999",
        "tle_line2": "2 41038  98.0210  18.1825 0000554 171.8197 188.3025 14.82891658544216"
      },
      "geometry": {
        "type": "Point",
        "coordinates": [
          53.32054294802572,
          -76.1489734646629
        ]
      }
    },
    {
      "type": "Feature",
      "properties": {
        "norad_id": 41167,
        "name": "KENT RIDGE 1",
        "group": "resource",
        "lat": 12.642758692818006,
        "lon": -154.8942543443023,
        "alt_km": 501.8958479717285,
        "timestamp": "2025-12-21T05:44:51.233104+00:00",
        "meta_object_name": "KENT RIDGE 1",
        "meta_object_id": "2015-077B",
        "meta_epoch": "2025-12-20T18:28:55.722432",
        "meta_mean_motion": 15.21693011,
        "meta_eccentricity": 0.00085387,
        "meta_inclination": 14.9783,
        "meta_ra_of_asc_node": 151.5508,
        "meta_arg_of_pericenter": 244.3199,
        "meta_mean_anomaly": 115.6241,
        "meta_ephemeris_type": 0,
        "meta_classification_type": "U",
        "meta_norad_cat_id": 41167,
        "meta_element_set_no": 999,
        "meta_rev_at_epoch": 55386,
        "meta_bstar": 0.00011405362,
        "meta_mean_motion_dot": 3.411e-05,
        "meta_mean_motion_ddot": 0,
        "tle_line1": "1 41167U 15077B   25354.77008938  .00003411  00000+0  11405-3 0  9992",
        "tle_line2": "2 41167  14.9783 151.5508 0008538 244.3199 115.6241 15.21693011553860"
      },
      "geometry": {
        "type": "Point",
        "coordinates": [
          -154.8942543443023,
          12.642758692818006
        ]
      }
    },
    {
      "type": "Feature",
      "properties": {
        "norad_id": 41194,
        "name": "GAOFEN-4",
        "group": "resource",
        "lat": -0.09173572117106933,
        "lon": -77.98143167262006,
        "alt_km": 35789.506208039864,
        "timestamp": "2025-12-21T05:44:51.233116+00:00",
        "meta_object_name": "GAOFEN-4",
        "meta_object_id": "2015-083A",
        "meta_epoch": "2025-12-19T15:27:26.627616",
        "meta_mean_motion": 1.00273138,
        "meta_eccentricity": 0.0002945,
        "meta_inclination": 0.1878,
        "meta_ra_of_asc_node": 81.7841,
        "meta_arg_of_pericenter": 93.4275,
        "meta_mean_anomaly": 250.8523,
        "meta_ephemeris_type": 0,
        "meta_classification_type": "U",
        "meta_norad_cat_id": 41194,
        "meta_element_set_no": 999,
        "meta_rev_at_epoch": 3672,
        "meta_bstar": 0,
        "meta_mean_motion_dot": -3.11e-06,
        "meta_mean_motion_ddot": 0,
        "tle_line1": "1 41194U 15083A   25353.64405819 -.00000311  00000+0  00000+0 0  9995",
        "tle_line2": "2 41194   0.1878  81.7841 0002945  93.4275 250.8523  1.00273138 36722"
      },
      "geometry": {
        "type": "Point",
        "coordinates": [
          -77.98143167262006,
          -0.09173572117106933
        ]
      }
    },
    {
      "type": "Feature",
      "properties": {
        "norad_id": 41240,
        "name": "JASON-3",
        "group": "resource",
        "lat": 60.473456268981145,
        "lon": -91.77133994840041,
        "alt_km": 1309.5244664382617,
        "timestamp": "2025-12-21T05:44:51.233127+00:00",
        "meta_object_name": "JASON-3",
        "meta_object_id": "2016-002A",
        "meta_epoch": "2025-12-20T21:43:59.956320",
        "meta_mean_motion": 12.87626896,
        "meta_eccentricity": 0.0007226,
        "meta_inclination": 66.0399,
        "meta_ra_of_asc_node": 140.6563,
        "meta_arg_of_pericenter": 271.2978,
        "meta_mean_anomaly": 88.7213,
        "meta_ephemeris_type": 0,
        "meta_classification_type": "U",
        "meta_norad_cat_id": 41240,
        "meta_element_set_no": 999,
        "meta_rev_at_epoch": 46429,
        "meta_bstar": -1.1736452e-05,
        "meta_mean_motion_dot": -6.5e-07,
        "meta_mean_motion_ddot": 0,
        "tle_line1": "1 41240U 16002A   25354.90555505 -.00000065  00000+0 -11736-4 0  9997",
        "tle_line2": "2 41240  66.0399 140.6563 0007226 271.2978  88.7213 12.87626896464293"
      },
      "geometry": {
        "type": "Point",
        "coordinates": [
          -91.77133994840041,
          60.473456268981145
        ]
      }
    },
    {
      "type": "Feature",
      "properties": {
        "norad_id": 41335,
        "name": "SENTINEL-3A",
        "group": "resource",
        "lat": 63.64954993150927,
        "lon": 42.27796717065113,
        "alt_km": 795.862065891909,
        "timestamp": "2025-12-21T05:44:51.233138+00:00",
        "meta_object_name": "SENTINEL-3A",
        "meta_object_id": "2016-011A",
        "meta_epoch": "2025-12-20T22:42:41.438016",
        "meta_mean_motion": 14.26733587,
        "meta_eccentricity": 9.058e-05,
        "meta_inclination": 98.6303,
        "meta_ra_of_asc_node": 59.8442,
        "meta_arg_of_pericenter": 94.3857,
        "meta_mean_anomaly": 265.7427,
        "meta_ephemeris_type": 0,
        "meta_classification_type": "U",
        "meta_norad_cat_id": 41335,
        "meta_element_set_no": 999,
        "meta_rev_at_epoch": 51264,
        "meta_bstar": 5.8061272e-05,
        "meta_mean_motion_dot": 9.7e-07,
        "meta_mean_motion_ddot": 0,
        "tle_line1": "1 41335U 16011A   25354.94631294  .00000097  00000+0  58061-4 0  9991",
        "tle_line2": "2 41335  98.6303  59.8442 0000905  94.3857 265.7427 14.26733587512646"
      },
      "geometry": {
        "type": "Point",
        "coordinates": [
          42.27796717065113,
          63.64954993150927
        ]
      }
    },
    {
      "type": "Feature",
      "properties": {
        "norad_id": 41556,
        "name": "ZIYUAN 3-02 (ZY 3-02)",
        "group": "resource",
        "lat": -5.3241257438540215,
        "lon": -111.42918667514029,
        "alt_km": 499.41934724823295,
        "timestamp": "2025-12-21T05:44:51.233147+00:00",
        "meta_object_name": "ZIYUAN 3-02 (ZY 3-02)",
        "meta_object_id": "2016-033A",
        "meta_epoch": "2025-12-20T22:37:12.502848",
        "meta_mean_motion": 15.21161972,
        "meta_eccentricity": 0.00110867,
        "meta_inclination": 97.4037,
        "meta_ra_of_asc_node": 68.9732,
        "meta_arg_of_pericenter": 215.4351,
        "meta_mean_anomaly": 144.6149,
        "meta_ephemeris_type": 0,
        "meta_classification_type": "U",
        "meta_norad_cat_id": 41556,
        "meta_element_set_no": 999,
        "meta_rev_at_epoch": 53088,
        "meta_bstar": 0.00022229106,
        "meta_mean_motion_dot": 4.891e-05,
        "meta_mean_motion_ddot": 0,
        "tle_line1": "1 41556U 16033A   25354.94250582  .00004891  00000+0  22229-3 0  9999",
        "tle_line2": "2 41556  97.4037  68.9732 0011086 215.4351 144.6149 15.21161972530883"
      },
      "geometry": {
        "type": "Point",
        "coordinates": [
          -111.42918667514029,
          -5.3241257438540215
        ]
      }
    }
  ]
}